     3.04           N: GNSS NAV DATA    M: MIXED NAV DATA   RINEX VERSION / TYPE
NetR9 5.45          Receiver Operator   20210103 120000 UTC PGM / RUN BY / DATE
GPSA    .7451D-08  -.1490D-07  -.5960D-07   .1192D-06       IONOSPHERIC CORR
GPSB    .9011D+05  -.6554D+05  -.1311D+06   .4588D+06       IONOSPHERIC CORR
GAL     .4775D+02  -.1797D+00   .4089D-02   .0000D+00       IONOSPHERIC CORR
QZSA    .6519D-08  -.3725D-07  -.2980D-06  -.3576D-06       IONOSPHERIC CORR
QZSB    .8397D+05  -.4915D+05  -.3277D+07  -.8389D+07       IONOSPHERIC CORR
BDSA    .1304D-07  -.5215D-07   .0000D+00   .1788D-06       IONOSPHERIC CORR
BDSB    .1024D+06   .3277D+05  -.1966D+06  -.1966D+06       IONOSPHERIC CORR
GPUT   .0000000000D+00  .444089210D-14 233472 2139          TIME SYSTEM CORR
GAUT   .1862645149D-08 -.888178420D-15      0 2139          TIME SYSTEM CORR
BDUT  -.4656612873D-08 -.799360578D-13     14  783          TIME SYSTEM CORR
QZUT   .4656612873D-08  .000000000D+00 266240 2139          TIME SYSTEM CORR
GAGP   .4132743925D-08  .888178420D-15      0 2139          TIME SYSTEM CORR
    18    18  2185     7                                    LEAP SECONDS
                                                            END OF HEADER
R04 2021 01 03 12 45 00  .684298574924D-04  .181898940355D-11  .450000000000D+05
      .443392089844D+03  .278087425232D+01 -.279396772385D-08  .000000000000D+00
     -.116268901367D+05  .138414669037D+01  .000000000000D+00  .600000000000D+01
      .227213061523D+05  .653779983521D+00 -.186264514923D-08  .000000000000D+00
R14 2021 01 03 12 45 00  .594267621636D-04  .000000000000D+00  .450000000000D+05
      .213781669922D+05 -.240764617920D+00  .000000000000D+00  .000000000000D+00
     -.138523085938D+05 -.111999511719D-01  .186264514923D-08 -.700000000000D+01
      .141403906250D+04  .355444908142D+01 -.186264514923D-08  .000000000000D+00
R21 2021 01 03 12 45 00 -.177749432623D-03 -.272848410532D-11  .450000000000D+05
     -.853564111328D+04 -.802450180054D-01 -.931322574615D-09  .000000000000D+00
      .122555581055D+05 -.283556079865D+01 -.931322574615D-09  .400000000000D+01
      .206947656250D+05  .164409923553D+01 -.186264514923D-08  .000000000000D+00
R20 2021 01 03 12 45 00 -.430315732956D-03  .000000000000D+00  .450000000000D+05
     -.100107988281D+05 -.211868286133D+00 -.372529029846D-08  .000000000000D+00
     -.897394189453D+04 -.296574306488D+01 -.186264514923D-08  .200000000000D+01
      .217015122070D+05 -.132129192352D+01 -.931322574615D-09  .000000000000D+00
E 2 2021 01 03 12 20 00  .188341655303D-03  .270006239589D-11  .000000000000D+00
      .740000000000D+02 -.278125000000D+01  .297726687226D-08  .702527932823D-02
     -.189989805222D-06  .413481146097D-03  .770017504692D-05  .544061166573D+04
      .444000000000D+05 -.298023223877D-07  .303170279422D+01  .372529029846D-08
      .980181248140D+00  .182250000000D+03 -.314059984716D-01 -.548880005913D-08
     -.583952895411D-09  .513000000000D+03  .213900000000D+04
      .312000000000D+01  .000000000000D+00 -.116415321827D-08 -.186264514923D-08
      .450850000000D+05
E24 2021 01 03 12 20 00 -.669860572089D-03 -.201652028409D-10  .000000000000D+00
      .740000000000D+02 -.512500000000D+01  .299262465483D-08  .109888451014D+01
     -.245869159698D-06  .615523080342D-03  .787526369095D-05  .544060518646D+04
      .444000000000D+05  .745058059692D-08  .303391045610D+01 -.894069671631D-07
      .977696582724D+00  .183406250000D+03  .458420916328D+00 -.545951312492D-08
     -.609668252273D-09  .513000000000D+03  .213900000000D+04
      .312000000000D+01  .000000000000D+00 -.372529029846D-08 -.442378222942D-08
      .450850000000D+05
E 5 2021 01 03 12 20 00 -.315954675898D-03  .309796632791D-11  .000000000000D+00
      .740000000000D+02 -.547187500000D+02  .310120060602D-08  .129238374090D+01
     -.260025262833D-05  .149655039422D-03  .114440917969D-04  .544062618065D+04
      .444000000000D+05 -.204890966415D-07  .933949780380D+00  .000000000000D+00
      .954270900390D+00  .926562500000D+02  .156226886905D+01 -.544486965782D-08
      .280725979078D-09  .513000000000D+03  .213900000000D+04
      .312000000000D+01  .000000000000D+00  .349245965481D-08  .395812094212D-08
      .450850000000D+05
E 3 2021 01 03 12 20 00 -.383199541830D-03 -.423483470513D-11  .000000000000D+00
      .740000000000D+02 -.511562500000D+02  .320334771800D-08  .123506201114D+01
     -.239536166191D-05  .312820309773D-03  .120699405670D-04  .544062319946D+04
      .444000000000D+05 -.931322574615D-08  .933958838769D+00  .186264514923D-08
      .954257502987D+00  .788750000000D+02  .829131234793D+00 -.544736976196D-08
      .295012288446D-09  .513000000000D+03  .213900000000D+04
      .312000000000D+01  .000000000000D+00  .302679836750D-08  .325962901115D-08
      .451150000000D+05
E 8 2021 01 03 12 20 00  .606754393084D-02 -.565592017665D-11  .000000000000D+00
      .740000000000D+02 -.586875000000D+02  .307977114197D-08  .570671609483D+00
     -.264123082161D-05  .256853993051D-03  .125486403704D-04  .544062437439D+04
      .444000000000D+05  .186264514923D-08  .928515828228D+00  .372529029846D-08
      .960236348235D+00  .705312500000D+02  .705871250691D+00 -.540558230706D-08
      .289297764699D-09  .513000000000D+03  .213900000000D+04
      .312000000000D+01  .000000000000D+00 -.372529029846D-08 -.442378222942D-08
      .453550000000D+05
E 8 2021 01 03 12 30 00  .606754049659D-02 -.567013103137D-11  .000000000000D+00
      .750000000000D+02 -.565000000000D+02  .309441460907D-08  .646595976701D+00
     -.255368649960D-05  .256705330685D-03  .124443322420D-04  .544062353325D+04
      .450000000000D+05  .000000000000D+00  .928512580550D+00  .558793544769D-08
      .960236517934D+00  .731875000000D+02  .704331448952D+00 -.540558230706D-08
      .290012080167D-09  .513000000000D+03  .213900000000D+04
      .312000000000D+01  .000000000000D+00 -.372529029846D-08 -.442378222942D-08
      .456850000000D+05
E24 2021 01 03 12 30 00 -.669872679282D-03 -.201652028409D-10  .000000000000D+00
      .750000000000D+02 -.518750000000D+01  .300012496725D-08  .117325403389D+01
     -.266358256340D-06  .615522731096D-03  .788271427155D-05  .544060520935D+04
      .450000000000D+05  .242143869400D-07  .303390727572D+01 -.856816768646D-07
      .977696228698D+00  .183375000000D+03  .458436948448D+00 -.546701343734D-08
     -.618240037893D-09  .513000000000D+03  .213900000000D+04
      .312000000000D+01  .000000000000D+00 -.372529029846D-08 -.442378222942D-08
      .456850000000D+05
E 5 2021 01 03 12 30 00 -.315952871460D-03  .309796632791D-11  .000000000000D+00
      .750000000000D+02 -.553437500000D+02  .310512934110D-08  .136759658426D+01
     -.263191759586D-05  .149697763845D-03  .114869326353D-04  .544062591934D+04
      .450000000000D+05 -.223517417908D-07  .933946515147D+00 -.186264514923D-08
      .954271055460D+00  .918125000000D+02  .156144076380D+01 -.544701260422D-08
      .281440294547D-09  .513000000000D+03  .213900000000D+04
      .312000000000D+01  .000000000000D+00  .349245965481D-08  .395812094212D-08
      .456850000000D+05
E 3 2021 01 03 12 30 00 -.383202161174D-03 -.423483470513D-11  .000000000000D+00
      .750000000000D+02 -.530312500000D+02  .319513309012D-08  .130851926065D+01
     -.248104333878D-05  .312733929604D-03  .120010226965D-04  .544062380028D+04
      .450000000000D+05 -.931322574615D-08  .933955564758D+00  .186264514923D-08
      .954257681463D+00  .803750000000D+02  .830059217858D+00 -.544701260422D-08
      .295012288446D-09  .513000000000D+03  .213900000000D+04
      .312000000000D+01  .000000000000D+00  .302679836750D-08  .325962901115D-08
      .456850000000D+05
J03 2021 01 03 13 00 00 -.525917857885D-05 -.568434188608D-12  .000000000000D+00
      .490000000000D+02  .911750000000D+03  .861107297147D-09  .266858067280D+01
      .274367630482D-04  .753106910270D-01  .781565904617D-05  .649396078300D+04
      .468000000000D+05 -.271573662758D-05 -.163697926589D+01 -.192970037460D-05
      .712359646399D+00 -.162531250000D+03 -.153680636734D+01 -.164792578558D-08
     -.936110421328D-09  .200000000000D+01  .213900000000D+04  .100000000000D+01
      .280000000000D+01  .000000000000D+00  .000000000000D+00  .817000000000D+03
      .459060000000D+05  .100000000000D+01
R22 2021 01 03 12 45 00 -.904826447368D-04 -.272848410532D-11  .459000000000D+05
     -.210683398438D+04  .159525871277D+00  .931322574615D-09  .000000000000D+00
      .241002910156D+05 -.110305213928D+01  .000000000000D+00 -.300000000000D+01
      .793276562500D+04  .339912033081D+01 -.931322574615D-09  .000000000000D+00
E 8 2021 01 03 12 40 00  .606753706234D-02 -.567013103137D-11  .000000000000D+00
      .760000000000D+02 -.543125000000D+02  .310691512977D-08  .722331990290D+00
     -.246614217758D-05  .256605912000D-03  .123679637909D-04  .544062281609D+04
      .456000000000D+05  .000000000000D+00  .928509329946D+00  .558793544769D-08
      .960236689095D+00  .750937500000D+02  .702980085691D+00 -.540522514932D-08
      .290726395636D-09  .513000000000D+03  .213900000000D+04
      .312000000000D+01  .000000000000D+00 -.372529029846D-08 -.442378222942D-08
      .462850000000D+05
E24 2021 01 03 12 40 00 -.669884786475D-03 -.201509919862D-10  .000000000000D+00
      .760000000000D+02 -.531250000000D+01  .300726812193D-08  .124760551694D+01
     -.290572643280D-06  .615518307313D-03  .788643956184D-05  .544060525131D+04
      .456000000000D+05  .372529029846D-07  .303390407632D+01 -.782310962677D-07
      .977695862969D+00  .183343750000D+03  .458471044679D+00 -.547379943429D-08
     -.624668877109D-09  .513000000000D+03  .213900000000D+04
      .312000000000D+01  .000000000000D+00 -.372529029846D-08 -.442378222942D-08
      .462850000000D+05
